{
  "norad_id": 45360,
  "name": "STARLINK-1279",
  "history": [
    {
      "epoch": "2026-04-11T19:20:30.446016Z",
      "apogee_km": 376.8157756879291,
      "perigee_km": 370.9577198843499,
      "latitude_deg": 6.553587804864412e-06,
      "longitude_deg": 167.0535288851236,
      "height_km": 375.498333696017,
      "semi_major_axis_km": 6752.023747786139,
      "eccentricity": 0.0004338,
      "inclination_deg": 53.0409,
      "raan_deg": 297.2005,
      "arg_perigee_deg": 256.0196,
      "mean_anomaly_deg": 104.0336,
      "mean_motion_rev_day": 15.64774717
    },
    {
      "epoch": "2026-04-12T21:23:54.067200Z",
      "apogee_km": 376.7672977097145,
      "perigee_km": 369.7310030637809,
      "latitude_deg": 1.2645597005590507e-06,
      "longitude_deg": 129.8054976171481,
      "height_km": 374.7874282960755,
      "semi_major_axis_km": 6751.386150386747,
      "eccentricity": 0.0005211,
      "inclination_deg": 53.0397,
      "raan_deg": 291.871,
      "arg_perigee_deg": 259.6207,
      "mean_anomaly_deg": 100.422,
      "mean_motion_rev_day": 15.64996387
    },
    {
      "epoch": "2026-04-14T20:54:21.407904Z",
      "apogee_km": 375.357197749594,
      "perigee_km": 369.49635827752263,
      "latitude_deg": -1.199604531546453e-06,
      "longitude_deg": 125.52171043779097,
      "height_km": 373.2650557725497,
      "semi_major_axis_km": 6750.563778013558,
      "eccentricity": 0.0004341,
      "inclination_deg": 53.039,
      "raan_deg": 282.1522,
      "arg_perigee_deg": 271.286,
      "mean_anomaly_deg": 88.7657,
      "mean_motion_rev_day": 15.65282374
    },
    {
      "epoch": "2026-04-15T18:21:29.622816Z",
      "apogee_km": 375.1140502173166,
      "perigee_km": 368.95384421088966,
      "latitude_deg": -3.526929593699921e-05,
      "longitude_deg": 158.46694395704694,
      "height_km": 372.5580460332712,
      "semi_major_axis_km": 6750.170947214103,
      "eccentricity": 0.0004563,
      "inclination_deg": 53.0386,
      "raan_deg": 277.7627,
      "arg_perigee_deg": 277.0882,
      "mean_anomaly_deg": 82.9613,
      "mean_motion_rev_day": 15.65419015
    },
    {
      "epoch": "2026-04-16T20:24:16.803072Z",
      "apogee_km": 374.8457057697142,
      "perigee_km": 368.13252763404216,
      "latitude_deg": -7.955827043092069e-07,
      "longitude_deg": 121.36719819286742,
      "height_km": 371.7532356641054,
      "semi_major_axis_km": 6749.626116701878,
      "eccentricity": 0.0004973,
      "inclination_deg": 53.0416,
      "raan_deg": 272.4292,
      "arg_perigee_deg": 281.0033,
      "mean_anomaly_deg": 79.0422,
      "mean_motion_rev_day": 15.6560856
    },
    {
      "epoch": "2026-04-17T17:51:09.695808Z",
      "apogee_km": 374.5427123443087,
      "perigee_km": 367.74551133657405,
      "latitude_deg": -4.529020354323693e-05,
      "longitude_deg": 154.37464052565704,
      "height_km": 371.0356687614555,
      "semi_major_axis_km": 6749.281111840442,
      "eccentricity": 0.00050355,
      "inclination_deg": 53.0401,
      "raan_deg": 268.0379,
      "arg_perigee_deg": 287.3426,
      "mean_anomaly_deg": 72.7037,
      "mean_motion_rev_day": 15.65728606
    },
    {
      "epoch": "2026-04-18T19:53:38.991264Z",
      "apogee_km": 374.21938156183296,
      "perigee_km": 367.10749565962396,
      "latitude_deg": 6.272237794021255e-05,
      "longitude_deg": 117.35117202429169,
      "height_km": 370.25578994818596,
      "semi_major_axis_km": 6748.800438610728,
      "eccentricity": 0.0005269,
      "inclination_deg": 53.0403,
      "raan_deg": 262.7059,
      "arg_perigee_deg": 291.6586,
      "mean_anomaly_deg": 68.3868,
      "mean_motion_rev_day": 15.65895884
    },
    {
      "epoch": "2026-04-19T03:33:10.560096Z",
      "apogee_km": 374.0787840485691,
      "perigee_km": 366.99389180494745,
      "latitude_deg": -2.4307917341522225e-05,
      "longitude_deg": 0.5878354462653352,
      "height_km": 369.9812683059944,
      "semi_major_axis_km": 6748.673337926758,
      "eccentricity": 0.00052491,
      "inclination_deg": 53.04,
      "raan_deg": 261.1387,
      "arg_perigee_deg": 294.3354,
      "mean_anomaly_deg": 65.7112,
      "mean_motion_rev_day": 15.65940121
    },
    {
      "epoch": "2026-04-20T02:31:39.163296Z",
      "apogee_km": 373.71002672979284,
      "perigee_km": 366.38500740020845,
      "latitude_deg": 1.5105588081539822e-05,
      "longitude_deg": 10.31884984523098,
      "height_km": 369.17227919349915,
      "semi_major_axis_km": 6748.184517065,
      "eccentricity": 0.00054274,
      "inclination_deg": 53.0394,
      "raan_deg": 256.4324,
      "arg_perigee_deg": 299.0768,
      "mean_anomaly_deg": 60.9703,
      "mean_motion_rev_day": 15.66110273
    },
    {
      "epoch": "2026-04-21T13:44:55.713120Z",
      "apogee_km": 372.9278829958248,
      "perigee_km": 364.76807935958914,
      "latitude_deg": 4.956768247986197e-05,
      "longitude_deg": -166.66447135542012,
      "height_km": 367.32642760780243,
      "semi_major_axis_km": 6746.984981177707,
      "eccentricity": 0.0006047,
      "inclination_deg": 53.0404,
      "raan_deg": 249.2145,
      "arg_perigee_deg": 306.4957,
      "mean_anomaly_deg": 53.5501,
      "mean_motion_rev_day": 15.66527946
    },
    {
      "epoch": "2026-04-22T15:46:38.013024Z",
      "apogee_km": 372.11544985969795,
      "perigee_km": 364.78325980926365,
      "latitude_deg": -4.937200280724702e-06,
      "longitude_deg": 156.50378645867684,
      "height_km": 366.7500370461216,
      "semi_major_axis_km": 6746.5863548344805,
      "eccentricity": 0.0005434,
      "inclination_deg": 53.0401,
      "raan_deg": 243.878,
      "arg_perigee_deg": 315.2528,
      "mean_anomaly_deg": 44.8048,
      "mean_motion_rev_day": 15.66666787
    },
    {
      "epoch": "2026-04-24T12:10:13.306944Z",
      "apogee_km": 371.3175428314453,
      "perigee_km": 363.2270988920036,
      "latitude_deg": 1.569205083891564e-05,
      "longitude_deg": -160.32262053316364,
      "height_km": 365.19681500808247,
      "semi_major_axis_km": 6745.409320861724,
      "eccentricity": 0.0005997,
      "inclination_deg": 53.0387,
      "raan_deg": 234.7718,
      "arg_perigee_deg": 317.4504,
      "mean_anomaly_deg": 42.6046,
      "mean_motion_rev_day": 15.67076866
    },
    {
      "epoch": "2026-04-25T14:11:16.656000Z",
      "apogee_km": 370.98614402240764,
      "perigee_km": 361.87827776001905,
      "latitude_deg": 9.624708755528845e-06,
      "longitude_deg": 163.0073153088644,
      "height_km": 363.66904103432296,
      "semi_major_axis_km": 6744.569210891213,
      "eccentricity": 0.0006752,
      "inclination_deg": 53.0379,
      "raan_deg": 229.4342,
      "arg_perigee_deg": 323.6492,
      "mean_anomaly_deg": 36.4064,
      "mean_motion_rev_day": 15.6736967
    },
    {
      "epoch": "2026-04-27T00:00:02.000160Z",
      "apogee_km": 370.1299770628002,
      "perigee_km": 360.55410195711556,
      "latitude_deg": 27.493041221088472,
      "longitude_deg": 30.40588563749601,
      "height_km": 364.6993499984055,
      "semi_major_axis_km": 6743.479039509958,
      "eccentricity": 0.00071001,
      "inclination_deg": 53.0369,
      "raan_deg": 222.4909,
      "arg_perigee_deg": 329.1666,
      "mean_anomaly_deg": 65.9392,
      "mean_motion_rev_day": 15.67749764
    },
    {
      "epoch": "2026-04-27T20:00:03.000384Z",
      "apogee_km": 369.7265690101067,
      "perigee_km": 359.6487432790327,
      "latitude_deg": 44.78906671572722,
      "longitude_deg": 110.52654904215284,
      "height_km": 369.2053082002491,
      "semi_major_axis_km": 6742.824656144569,
      "eccentricity": 0.0007473,
      "inclination_deg": 53.0372,
      "raan_deg": 218.3837,
      "arg_perigee_deg": 332.6083,
      "mean_anomaly_deg": 88.8852,
      "mean_motion_rev_day": 15.67977992
    },
    {
      "epoch": "2026-04-28T20:00:01.000224Z",
      "apogee_km": 369.18876304401965,
      "perigee_km": 358.737159683913,
      "latitude_deg": -38.04996480976308,
      "longitude_deg": 20.79180035364254,
      "height_km": 371.64863336251346,
      "semi_major_axis_km": 6742.099961363966,
      "eccentricity": 0.0007751,
      "inclination_deg": 53.0371,
      "raan_deg": 213.4519,
      "arg_perigee_deg": 336.7174,
      "mean_anomaly_deg": 333.1691,
      "mean_motion_rev_day": 15.68230807
    },
    {
      "epoch": "2026-04-29T20:00:01.999008Z",
      "apogee_km": 368.5152733805253,
      "perigee_km": 357.8006591611347,
      "latitude_deg": -15.46481940475554,
      "longitude_deg": -117.33004111789869,
      "height_km": 371.4436252994305,
      "semi_major_axis_km": 6741.29496627083,
      "eccentricity": 0.0007947,
      "inclination_deg": 53.0373,
      "raan_deg": 208.5186,
      "arg_perigee_deg": 339.61,
      "mean_anomaly_deg": 219.73,
      "mean_motion_rev_day": 15.68511715
    },
    {
      "epoch": "2026-04-30T11:58:30.258048Z",
      "apogee_km": 368.3466552542741,
      "perigee_km": 357.3191026293125,
      "latitude_deg": -1.8759647412459286e-05,
      "longitude_deg": 167.16217616388607,
      "height_km": 358.50420626356623,
      "semi_major_axis_km": 6740.969878941793,
      "eccentricity": 0.00081795,
      "inclination_deg": 53.0388,
      "raan_deg": 205.2331,
      "arg_perigee_deg": 341.6299,
      "mean_anomaly_deg": 18.442,
      "mean_motion_rev_day": 15.6862518
    },
    {
      "epoch": "2026-05-02T11:22:15.691872Z",
      "apogee_km": 367.1737326941102,
      "perigee_km": 355.8430408698514,
      "latitude_deg": 5.5131313030187096e-05,
      "longitude_deg": 164.5281385607715,
      "height_km": 356.8488008567378,
      "semi_major_axis_km": 6739.64538678198,
      "eccentricity": 0.0008406,
      "inclination_deg": 53.038,
      "raan_deg": 195.4848,
      "arg_perigee_deg": 349.0873,
      "mean_anomaly_deg": 10.996,
      "mean_motion_rev_day": 15.69087608
    }
  ]
}